ONEWEB-0220             
1 48232U 21031Y   24040.56403061 -.00000094  00000+0 -28690-3 0  9993
2 48232  87.8937 100.6219 0001478 101.7136 258.4160 13.14504926135607
ONEWEB-0165             
1 48233U 21031Z   24041.12540500 -.00000023  00000+0 -95765-4 0  9997
2 48233  87.8941 100.5182 0001735  96.8805 263.2522 13.14506851135632
ONEWEB-0199             
1 48234U 21031AA  24040.72894659 -.00000166  00000+0 -48212-3 0  9992
2 48234  87.8940 100.5687 0001748  99.4017 260.7310 13.14503128135484
ONEWEB-0203             
1 48235U 21031AB  24041.17617314 -.00000021  00000+0 -92006-4 0  9995
2 48235  87.8939 100.4801 0002339  91.9097 268.2300 13.14503149135555
ONEWEB-0197             
1 48236U 21031AC  24040.69486085  .00000247  00000+0  63208-3 0  9990
2 48236  87.8942 100.5841 0001897 113.1210 247.0120 13.14501652135403
ONEWEB-0194             
1 48237U 21031AD  24040.59734057  .00000125  00000+0  30235-3 0  9994
2 48237  87.8941 100.5951 0002196  98.0185 262.1194 13.14502006135560
ONEWEB-0193             
1 48238U 21031AE  24041.14601758  .00000287  00000+0  73872-3 0  9991
2 48238  87.8940 100.4943 0001871  94.2529 265.8814 13.14501677135583
ONEWEB-0191             
1 48239U 21031AF  24041.15712315  .00000327  00000+0  84658-3 0  9994
2 48239  87.8938 100.4795 0001895  97.1975 262.9370 13.14502383135444
